{
  "norad_id": 64805,
  "name": "STARLINK-34624",
  "history": [
    {
      "epoch": "2026-03-28T17:07:40.535040Z",
      "apogee_km": 574.7772463371493,
      "perigee_km": 569.251875846081,
      "latitude_deg": 4.437439843989163e-05,
      "longitude_deg": 3.553765265687518,
      "height_km": 574.4392168800055,
      "semi_major_axis_km": 6950.151561091615,
      "eccentricity": 0.0003975,
      "inclination_deg": 70.0013,
      "raan_deg": 86.6028,
      "arg_perigee_deg": 270.0788,
      "mean_anomaly_deg": 89.9916,
      "mean_motion_rev_day": 14.98343365
    },
    {
      "epoch": "2026-03-29T04:20:36.892320Z",
      "apogee_km": 574.7916766936114,
      "perigee_km": 569.2398946484163,
      "latitude_deg": 5.863944767656247e-05,
      "longitude_deg": -166.31976216617315,
      "height_km": 574.4704411090307,
      "semi_major_axis_km": 6950.152785671014,
      "eccentricity": 0.0003994,
      "inclination_deg": 70.0013,
      "raan_deg": 85.4247,
      "arg_perigee_deg": 269.4596,
      "mean_anomaly_deg": 90.6106,
      "mean_motion_rev_day": 14.98342969
    },
    {
      "epoch": "2026-03-30T04:22:37.925760Z",
      "apogee_km": 574.7457336550133,
      "perigee_km": 569.3051464969221,
      "latitude_deg": 1.5647955712279347e-05,
      "longitude_deg": -170.33670881775856,
      "height_km": 574.5519704391236,
      "semi_major_axis_km": 6950.162440075967,
      "eccentricity": 0.0003914,
      "inclination_deg": 70.0015,
      "raan_deg": 82.8991,
      "arg_perigee_deg": 267.9333,
      "mean_anomaly_deg": 92.1378,
      "mean_motion_rev_day": 14.98339847
    }
  ]
}